$$SOE
2459580.500000000, A.D. 2022-Jan-01 00:00:00.0000, 2.672334648128767E+08, 3.165917328246267E+08, 5.670769574838676E+07,
2459587.500000000, A.D. 2022-Jan-08 00:00:00.0000, 2.602428809712839E+08, 3.241771178103194E+08, 5.633095784753180E+07,
2459594.500000000, A.D. 2022-Jan-15 00:00:00.0000, 2.530811548976326E+08, 3.315493087925233E+08, 5.591717511104529E+07,
2459601.500000000, A.D. 2022-Jan-22 00:00:00.0000, 2.457545633177293E+08, 3.387055070683606E+08, 5.546696499054535E+07,
2459608.500000000, A.D. 2022-Jan-29 00:00:00.0000, 2.382693512796534E+08, 3.456430777535591E+08, 5.498095211123924E+07,
2459615.500000000, A.D. 2022-Feb-05 00:00:00.0000, 2.306317282391443E+08, 3.523595436537586E+08, 5.445976781856440E+07,
2459622.500000000, A.D. 2022-Feb-12 00:00:00.0000, 2.228478665785222E+08, 3.588525782528046E+08, 5.390404948686410E+07,
2459629.500000000, A.D. 2022-Feb-19 00:00:00.0000, 2.149239012167776E+08, 3.651200001868858E+08, 5.331443990221228E+07,
2459636.500000000, A.D. 2022-Feb-26 00:00:00.0000, 2.068659289805056E+08, 3.711597684809605E+08, 5.269158677773395E+07,
2459643.500000000, A.D. 2022-Mar-05 00:00:00.0000, 1.986800078776918E+08, 3.769699779308076E+08, 5.203614233401452E+07,
2459650.500000000, A.D. 2022-Mar-12 00:00:00.0000, 1.903721564804832E+08, 3.825488545648376E+08, 5.134876291661301E+07,
2459657.500000000, A.D. 2022-Mar-19 00:00:00.0000, 1.819483534733630E+08, 3.878947512129627E+08, 5.063010864422685E+07,
2459664.500000000, A.D. 2022-Mar-26 00:00:00.0000, 1.734145373753408E+08, 3.930061431753578E+08, 4.988084308282012E+07,
2459671.500000000, A.D. 2022-Apr-02 00:00:00.0000, 1.647766064909131E+08, 3.978816239337139E+08, 4.910163293289989E+07,
2459678.500000000, A.D. 2022-Apr-09 00:00:00.0000, 1.560404193495693E+08, 4.025199009082950E+08, 4.829314770354384E+07,
2459685.500000000, A.D. 2022-Apr-16 00:00:00.0000, 1.472117959800402E+08, 4.069197919137609E+08, 4.745605939224193E+07,
2459692.500000000, A.D. 2022-Apr-23 00:00:00.0000, 1.382965187412612E+08, 4.110802233953687E+08, 4.659104237369686E+07,
2459699.500000000, A.D. 2022-Apr-30 00:00:00.0000, 1.293003308289939E+08, 4.150002281942822E+08, 4.569877348344922E+07,
2459706.500000000, A.D. 2022-May-07 00:00:00.0000, 1.202289355086992E+08, 4.186789408665320E+08, 4.477993185304755E+07,
2459713.500000000, A.D. 2022-May-14 00:00:00.0000, 1.110879974568820E+08, 4.221155935943810E+08, 4.383519861678874E+07,
2459720.500000000, A.D. 2022-May-21 00:00:00.0000, 1.018831441730906E+08, 4.253095134450109E+08, 4.286525673676679E+07,
2459727.500000000, A.D. 2022-May-28 00:00:00.0000, 9.261996697558722E+07, 4.282601200135451E+08, 4.187079091040441E+07,
2459734.500000000, A.D. 2022-Jun-04 00:00:00.0000, 8.330402185016659E+07, 4.309669231345048E+08, 4.085248750839540E+07,
2459741.500000000, A.D. 2022-Jun-11 00:00:00.0000, 7.394083028995109E+07, 4.334295206611562E+08, 3.981103452897865E+07,
2459748.500000000, A.D. 2022-Jun-18 00:00:00.0000, 6.453588015850590E+07, 4.356475963233663E+08, 3.874712156515509E+07,
2459755.500000000, A.D. 2022-Jun-25 00:00:00.0000, 5.509462659971055E+07, 4.376209176282123E+08, 3.766143977858785E+07,
2459762.500000000, A.D. 2022-Jul-02 00:00:00.0000, 4.562249312266157E+07, 4.393493337351904E+08, 3.655468186176777E+07,
2459769.500000000, A.D. 2022-Jul-09 00:00:00.0000, 3.612487324629550E+07, 4.408327734811600E+08, 3.542754196650141E+07,
2459776.500000000, A.D. 2022-Jul-16 00:00:00.0000, 2.660713264378143E+07, 4.420712446371515E+08, 3.428071569177583E+07,
2459783.500000000, A.D. 2022-Jul-23 00:00:00.0000, 1.707460958553903E+07, 4.430648344730703E+08, 3.311490033826450E+07,
2459790.500000000, A.D. 2022-Jul-30 00:00:00.0000, 7.532613761256903E+06, 4.438137082708318E+08, 3.193079514677748E+07,
2459797.500000000, A.D. 2022-Aug-06 00:00:00.0000, -2.013572926027605E+06, 4.443181064317347E+08, 3.072910124319282E+07,
2459804.500000000, A.D. 2022-Aug-13 00:00:00.0000, -1.155869441927615E+07, 4.445783429320450E+08, 2.951052158992875E+07,
2459811.500000000, A.D. 2022-Aug-20 00:00:00.0000, -2.109751899175709E+07, 4.445948046184992E+08, 2.827576104584596E+07,
2459818.500000000, A.D. 2022-Aug-27 00:00:00.0000, -3.062483809297393E+07, 4.443679506119276E+08, 2.702552646839082E+07,
2459825.500000000, A.D. 2022-Sep-03 00:00:00.0000, -4.013546531410097E+07, 4.438983117058489E+08, 2.576052682607621E+07,
2459832.500000000, A.D. 2022-Sep-10 00:00:00.0000, -4.962423538799959E+07, 4.431864897838694E+08, 2.448147331505731E+07,
2459839.500000000, A.D. 2022-Sep-17 00:00:00.0000, -5.908600319806722E+07, 4.422331572552010E+08, 2.318907947688672E+07,
2459846.500000000, A.D. 2022-Sep-24 00:00:00.0000, -6.851564273786947E+07, 4.410390564580339E+08, 2.188406130736905E+07,
2459853.500000000, A.D. 2022-Oct-01 00:00:00.0000, -7.790804578360099E+07, 4.396049990079535E+08, 2.056713733202830E+07,
2459860.500000000, A.D. 2022-Oct-08 00:00:00.0000, -8.725811987463143E+07, 4.379318656124594E+08, 1.923902865272802E+07,
2459867.500000000, A.D. 2022-Oct-15 00:00:00.0000, -9.656078653678609E+07, 4.360206075506616E+08, 1.790045914807755E+07,
2459874.500000000, A.D. 2022-Oct-22 00:00:00.0000, -1.058109819311702E+08, 4.338722481332706E+08, 1.655215588913381E+07,
2459881.500000000, A.D. 2022-Oct-29 00:00:00.0000, -1.150036574330421E+08, 4.314878815447014E+08, 1.519484932856643E+07,
2459888.500000000, A.D. 2022-Nov-05 00:00:00.0000, -1.241337780471048E+08, 4.288686718074535E+08, 1.382927329426628E+07,
2459895.500000000, A.D. 2022-Nov-12 00:00:00.0000, -1.331963206274649E+08, 4.260158531382361E+08, 1.245616507047790E+07,
2459902.500000000, A.D. 2022-Nov-19 00:00:00.0000, -1.421862726237321E+08, 4.229307307413971E+08, 1.107626555374634E+07,
2459909.500000000, A.D. 2022-Nov-26 00:00:00.0000, -1.510986310941303E+08, 4.196146816413488E+08, 9.690319426592916E+06,
2459916.500000000, A.D. 2022-Dec-03 00:00:00.0000, -1.599284018231314E+08, 4.160691555421774E+08, 8.299075332259566E+06,
2459923.500000000, A.D. 2022-Dec-10 00:00:00.0000, -1.686705985016711E+08, 4.122956757332985E+08, 6.903286047406554E+06,
2459930.500000000, A.D. 2022-Dec-17 00:00:00.0000, -1.773202419487929E+08, 4.082958400165395E+08, 5.503708648006588E+06,
2459937.500000000, A.D. 2022-Dec-24 00:00:00.0000, -1.858723592688683E+08, 4.040713215892256E+08, 4.101104652585000E+06,
2459944.500000000, A.D. 2022-Dec-31 00:00:00.0000, -1.943219825903619E+08, 3.996238699911209E+08, 2.696240118360549E+06,
2459951.500000000, A.D. 2023-Jan-07 00:00:00.0000, -2.026641472674951E+08, 3.949553130781657E+08, 1.289885757221788E+06,
2459958.500000000, A.D. 2023-Jan-14 00:00:00.0000, -2.108938915160363E+08, 3.900675605215915E+08, -1.171827080581784E+05,
2459965.500000000, A.D. 2023-Jan-21 00:00:00.0000, -2.190062581299041E+08, 3.849626056603823E+08, -1.524184148126066E+06,
2459972.500000000, A.D. 2023-Jan-28 00:00:00.0000, -2.269962946132248E+08, 3.796425255077723E+08, -2.930331944448173E+06,
2459979.500000000, A.D. 2023-Feb-04 00:00:00.0000, -2.348590519437056E+08, 3.741094819383840E+08, -4.334833953562498E+06,
2459986.500000000, A.D. 2023-Feb-11 00:00:00.0000, -2.425895837692196E+08, 3.683657238646558E+08, -5.736892369998083E+06,
2459993.500000000, A.D. 2023-Feb-18 00:00:00.0000, -2.501829461063760E+08, 3.624135895803575E+08, -7.135703549849913E+06,
2460000.500000000, A.D. 2023-Feb-25 00:00:00.0000, -2.576341972845796E+08, 3.562555091101032E+08, -8.530457832794547E+06,
2460007.500000000, A.D. 2023-Mar-04 00:00:00.0000, -2.649383980401448E+08, 3.498940065850452E+08, -9.920339370945752E+06,
2460014.500000000, A.D. 2023-Mar-11 00:00:00.0000, -2.720906117386311E+08, 3.433317026468897E+08, -1.130452596779624E+07,
2460021.500000000, A.D. 2023-Mar-18 00:00:00.0000, -2.790859046851717E+08, 3.365713168322408E+08, -1.268218893635316E+07,
2460028.500000000, A.D. 2023-Mar-25 00:00:00.0000, -2.859193463265047E+08, 3.296156698911914E+08, -1.405249299979126E+07,
2460035.500000000, A.D. 2023-Apr-01 00:00:00.0000, -2.925860089275708E+08, 3.224676864342769E+08, -1.541459624231075E+07,
2460042.500000000, A.D. 2023-Apr-08 00:00:00.0000, -2.990809673463211E+08, 3.151303991335142E+08, -1.676764995473324E+07,
2460049.500000000, A.D. 2023-Apr-15 00:00:00.0000, -3.053993012522552E+08, 3.076069533732853E+08, -1.811079825229205E+07,
2460056.500000000, A.D. 2023-Apr-22 00:00:00.0000, -3.115360979845994E+08, 2.999006092994860E+08, -1.944317788103998E+07,
2460063.500000000, A.D. 2023-Apr-29 00:00:00.0000, -3.174864533199039E+08, 2.920147435143524E+08, -2.076391827988505E+07,
2460070.500000000, A.D. 2023-May-06 00:00:00.0000, -3.232454719202433E+08, 2.839528521929566E+08, -2.207214159207557E+07,
2460077.500000000, A.D. 2023-May-13 00:00:00.0000, -3.288082684519532E+08, 2.757185547258127E+08, -2.336696261113456E+07,
2460084.500000000, A.D. 2023-May-20 00:00:00.0000, -3.341699691539822E+08, 2.673155973948871E+08, -2.464748872468486E+07,
2460091.500000000, A.D. 2023-May-27 00:00:00.0000, -3.393257136760929E+08, 2.587478570523868E+08, -2.591281987853877E+07,
2460098.500000000, A.D. 2023-Jun-03 00:00:00.0000, -3.442706571426959E+08, 2.500193448272334E+08, -2.716204856670029E+07,
2460105.500000000, A.D. 2023-Jun-10 00:00:00.0000, -3.489999724312965E+08, 2.411342098433599E+08, -2.839425985308979E+07,
2460112.500000000, A.D. 2023-Jun-17 00:00:00.0000, -3.535088525891714E+08, 2.320967428860113E+08, -2.960853144048177E+07,
2460119.500000000, A.D. 2023-Jun-24 00:00:00.0000, -3.577925130813420E+08, 2.229113800663317E+08, -3.080393381380966E+07,
2460126.500000000, A.D. 2023-Jul-01 00:00:00.0000, -3.618461936305893E+08, 2.135827073054650E+08, -3.197953041573678E+07,
2460133.500000000, A.D. 2023-Jul-08 00:00:00.0000, -3.656651613393361E+08, 2.041154664523361E+08, -3.313437763643736E+07,
2460140.500000000, A.D. 2023-Jul-15 00:00:00.0000, -3.692447163878902E+08, 1.945145601982573E+08, -3.426752473498032E+07,
2460147.500000000, A.D. 2023-Jul-22 00:00:00.0000, -3.725801968026386E+08, 1.847850547462547E+08, -3.537801410261983E+07,
$$EOE